OBJECT_NAME,OBJECT_ID,EPOCH,MEAN_MOTION,ECCENTRICITY,INCLINATION,RA_OF_ASC_NODE,ARG_OF_PERICENTER,MEAN_ANOMALY,EPHEMERIS_TYPE,CLASSIFICATION_TYPE,NORAD_CAT_ID,ELEMENT_SET_NO,REV_AT_EPOCH,BSTAR,MEAN_MOTION_DOT,MEAN_MOTION_DDOT
HAWK-5A,2022-057AB,2026-06-12T01:50:48.945696,15.51210279,.00058752,97.6591,321.5962,94.1158,266.0765,0,U,52757,999,22555,.30354801E-3,.17679E-3,0
HAWK-6B,2023-011A,2026-06-12T00:03:36.311904,15.22884024,.00032442,40.4992,22.3116,331.8485,28.2149,0,U,55324,999,18705,.20501985E-3,.4713E-4,0
HAWK-6C,2023-011C,2026-06-09T09:05:18.780576,15.22867772,.00043141,40.4982,34.4522,308.3612,51.6810,0,U,55326,999,18666,.18394517E-3,.4206E-4,0
HAWK-6A,2023-011D,2026-06-11T08:18:23.285376,15.22877524,.0003768,40.4992,24.6026,316.5498,43.5014,0,U,55327,999,18696,.17656E-3,.4031E-4,0
HAWK-7A,2023-054P,2026-06-12T04:43:14.327904,15.27309862,.00046289,97.2710,50.6607,67.7192,292.4537,0,U,56191,999,17626,.21343425E-3,.5639E-4,0
HAWK-7B,2023-054R,2026-06-12T04:43:06.433536,15.27313104,.00039298,97.2742,48.9234,78.0409,282.1271,0,U,56193,999,17626,.21201055E-3,.5601E-4,0
HAWK-7C,2023-054Y,2026-06-12T04:42:57.384864,15.27309985,.00039619,97.2717,49.6935,69.8219,290.3446,0,U,56200,999,17626,.21502247E-3,.5681E-4,0
